KUIPER-00176            
1 65788U 25217AC  26002.16668980 -.00030796  00000+0 -40002-2 0  9999
2 65788  51.9000 337.2695 0000162 143.4171 217.5786 14.80234549  3184
KUIPER-00101            
1 65947U 25228A   26002.17842578  .00010220  00000+0  13668-2 0  9992
2 65947  51.9000 294.7042 0000376  10.6322 349.4648 14.79956236 13381
KUIPER-00113            
1 65948U 25228B   26002.16668980  .00023031  00000+0  27422-2 0  9992
2 65948  51.8992 289.9382 0005487 105.0648 259.7210 14.84228601  4834
KUIPER-00117            
1 65949U 25228C   26002.16668980  .00012675  00000+0  16396-2 0  9993
2 65949  51.8983 292.2928 0000786 103.9862 170.7676 14.81170817  4010
KUIPER-00121            
1 65950U 25228D   26002.16668980 -.01543642  00000+0 -17911+0 0  9992
2 65950  51.8974 287.3029 0004813 122.2810 285.0948 14.88432554  2770
KUIPER-00122            
1 65951U 25228E   26002.00683814  .00009701  00000+0  12971-2 0  9993
2 65951  51.9002 297.9497 0001234  57.6465 302.4617 14.80017079 13324
KUIPER-00123            
1 65952U 25228F   26002.17570369  .00009969  00000+0  13335-2 0  9993
2 65952  51.9006 297.2282 0001245  94.1550 265.9555 14.79970682 13349
KUIPER-00124            
1 65953U 25228G   26002.16668980  .00016401  00000+0  21405-2 0  9996
2 65953  51.8983 289.7610 0001100 128.6101 137.4111 14.80610899  5849
